NORAD_CAT_ID,OBJECT_NAME,OBJECT_TYPE,EPOCH,MEAN_MOTION,ECCENTRICITY,INCLINATION,RA_OF_ASC_NODE,ARG_OF_PERICENTER,MEAN_ANOMALY,BSTAR,MEAN_MOTION_DOT,MEAN_MOTION_DDOT,TLE_LINE0,TLE_LINE1,TLE_LINE2,SEMIMAJOR_AXIS,PERIOD,APOGEE,PERIGEE,DECAYED
55651.0,STARLINK-5506,PAYLOAD,2024-02-16 22:26:17,14.98325806,0.0002688,69.9989,279.986,261.5108,98.5747,-2.6287e-05,-4.07e-06,0.0,0 STARLINK-5506,1 55651U 23021Z   24047.93492884 -.00000407  00000-0 -26287-4 0  9996,2 55651  69.9989 279.9860 0002688 261.5108  98.5747 14.98325806 56188,6950.206,96.107,573.939,570.203,0.0
55651.0,STARLINK-5506,PAYLOAD,2024-02-17 08:03:06,14.98327963,0.0002534,69.9991,278.9753,269.8709,90.216,-7.5588e-05,-9.95e-06,0.0,0 STARLINK-5506,1 55651U 23021Z   24048.33549021 -.00000995  00000-0 -75588-4 0  9997,2 55651  69.9991 278.9753 0002534 269.8709  90.2160 14.98327963 56240,6950.199,96.107,573.825,570.303,0.0
55651.0,STARLINK-5506,PAYLOAD,2024-02-17 19:16:02,14.98329523,0.0002852,69.9982,277.7967,264.8407,95.2427,-0.00010215,-1.312e-05,0.0,0 STARLINK-5506,1 55651U 23021Z   24048.80280845 -.00001312  00000-0 -10215-3 0  9994,2 55651  69.9982 277.7967 0002852 264.8407  95.2427 14.98329523 56017,6950.194,96.107,574.042,570.077,0.0
55651.0,STARLINK-5506,PAYLOAD,2024-02-17 22:28:18,14.98330857,0.0002734,69.9982,277.4601,256.5817,103.5037,-7.721e-05,-1.014e-05,0.0,0 STARLINK-5506,1 55651U 23021Z   24048.93632652 -.00001014  00000-0 -77210-4 0  9993,2 55651  69.9982 277.4601 0002734 256.5817 103.5037 14.98330857 56338,6950.19,96.107,573.955,570.155,0.0
55651.0,STARLINK-5506,PAYLOAD,2024-02-18 08:05:06,14.98334268,0.0002862,69.998,276.45,266.034,94.0492,-6.5492e-05,-8.74e-06,0.0,0 STARLINK-5506,1 55651U 23021Z   24049.33688367 -.00000874  00000-0 -65492-4 0  9994,2 55651  69.9980 276.4500 0002862 266.0340  94.0492 14.98334268 56397,6950.18,96.107,574.034,570.056,0.0
55651.0,STARLINK-5506,PAYLOAD,2024-02-18 19:18:03,14.98330796,0.0002789,69.9979,275.2715,268.3017,91.7822,7.2985e-05,7.78e-06,0.0,0 STARLINK-5506,1 55651U 23021Z   24049.80420224  .00000778  00000-0  72985-4 0  9998,2 55651  69.9979 275.2715 0002789 268.3017  91.7822 14.98330796 56162,6950.19,96.107,573.994,570.117,0.0
55651.0,STARLINK-5506,PAYLOAD,2024-02-18 22:30:19,14.98331346,0.0002682,69.9979,274.9347,265.6683,94.4169,8.382e-05,9.07e-06,0.0,0 STARLINK-5506,1 55651U 23021Z   24049.93772151  .00000907  00000-0  83820-4 0  9995,2 55651  69.9979 274.9347 0002682 265.6683  94.4169 14.98331346 56481,6950.189,96.107,573.918,570.19,0.0
55651.0,STARLINK-5506,PAYLOAD,2024-02-19 08:07:08,14.98324508,0.00024,69.999,273.9234,274.3318,85.7567,-1.6028e-05,-2.84e-06,0.0,0 STARLINK-5506,1 55651U 23021Z   24050.33829001 -.00000284  00000-0 -16028-4 0  9994,2 55651  69.9990 273.9234 0002400 274.3318  85.7567 14.98324508 56249,6950.21,96.107,573.743,570.407,0.0
55651.0,STARLINK-5506,PAYLOAD,2024-02-19 22:32:20,14.98322395,0.0002799,69.998,272.4102,263.2305,96.8536,-2.5361e-05,-3.96e-06,0.0,0 STARLINK-5506,1 55651U 23021Z   24050.93913160 -.00000396  00000-0 -25361-4 0  9994,2 55651  69.9980 272.4102 0002799 263.2305  96.8536 14.98322395 56634,6950.216,96.107,574.027,570.136,0.0
55651.0,STARLINK-5506,PAYLOAD,2024-02-20 08:09:08,14.98336943,0.0002942,69.9979,271.3999,277.1879,82.8945,-0.00014953,-1.877e-05,0.0,0 STARLINK-5506,1 55651U 23021Z   24051.33968665 -.00001877  00000-0 -14953-3 0  9998,2 55651  69.9979 271.3999 0002942 277.1879  82.8945 14.98336943 56390,6950.171,96.107,574.081,569.992,0.0
55651.0,STARLINK-5506,PAYLOAD,2024-02-20 22:34:21,14.98334675,0.0002936,69.9974,269.8838,268.4797,91.6026,-3.705e-06,-1.37e-06,0.0,0 STARLINK-5506,1 55651U 23021Z   24051.94052347 -.00000137  00000-0 -37050-5 0  9999,2 55651  69.9974 269.8838 0002936 268.4797  91.6026 14.98334675 56785,6950.178,96.107,574.084,570.003,0.0
55651.0,STARLINK-5506,PAYLOAD,2024-02-21 08:11:09,14.98332855,0.0002892,69.9974,268.8744,264.8221,95.2608,-1.4367e-05,-2.64e-06,0.0,0 STARLINK-5506,1 55651U 23021Z   24052.34108381 -.00000264  00000-0 -14367-4 0  9990,2 55651  69.9974 268.8744 0002892 264.8221  95.2608 14.98332855 56541,6950.184,96.107,574.059,570.039,0.0
55651.0,STARLINK-5506,PAYLOAD,2024-02-21 14:35:41,14.98327166,0.0003023,69.9973,268.2009,269.1817,90.8995,7.4882e-05,8e-06,0.0,0 STARLINK-5506,1 55651U 23021Z   24052.60812490  .00000800  00000-0  74882-4 0  9994,2 55651  69.9973 268.2009 0003023 269.1817  90.8995 14.98327166 56880,6950.202,96.107,574.168,569.966,0.0
55651.0,STARLINK-5506,PAYLOAD,2024-02-21 22:36:22,14.98328353,0.0003036,69.9974,267.3595,269.8908,90.1903,5.7394e-05,5.92e-06,0.0,0 STARLINK-5506,1 55651U 23021Z   24052.94192504  .00000592  00000-0  57394-4 0  9995,2 55651  69.9974 267.3595 0003036 269.8908  90.1903 14.98328353 56930,6950.198,96.107,574.173,569.953,0.0
55651.0,STARLINK-5506,PAYLOAD,2024-02-22 14:37:42,14.98327114,0.0003037,69.9975,265.6759,269.4955,90.5856,0.00010185,1.122e-05,0.0,0 STARLINK-5506,1 55651U 23021Z   24053.60952405  .00001122  00000-0  10185-3 0  9999,2 55651  69.9975 265.6759 0003037 269.4955  90.5856 14.98327114 57030,6950.202,96.107,574.178,569.956,0.0
55651.0,STARLINK-5506,PAYLOAD,2024-02-22 19:26:06,14.98331441,0.000307,69.9976,265.1708,269.767,90.3137,3.8592e-05,3.67e-06,0.0,0 STARLINK-5506,1 55651U 23021Z   24053.80980262  .00000367  00000-0  38592-4 0  9996,2 55651  69.9976 265.1708 0003070 269.7670  90.3137 14.98331441 56761,6950.188,96.107,574.187,569.92,0.0
55651.0,STARLINK-5506,PAYLOAD,2024-02-22 22:38:23,14.98333887,0.0002981,69.9975,264.8342,270.7951,89.2867,-5.1258e-06,-1.54e-06,0.0,0 STARLINK-5506,1 55651U 23021Z   24053.94332210 -.00000154  00000-0 -51258-5 0  9996,2 55651  69.9975 264.8342 0002981 270.7951  89.2867 14.98333887 57083,6950.181,96.107,574.118,569.974,0.0
55651.0,STARLINK-5506,PAYLOAD,2024-02-23 14:39:43,14.98328329,0.0002934,69.9977,263.1508,271.1939,88.8883,-2.5881e-05,-4.02e-06,0.0,0 STARLINK-5506,1 55651U 23021Z   24054.61092528 -.00000402  00000-0 -25881-4 0  9994,2 55651  69.9977 263.1508 0002934 271.1939  88.8883 14.98328329 57189,6950.198,96.107,574.102,570.024,0.0
55651.0,STARLINK-5506,PAYLOAD,2024-02-23 19:28:08,14.98319827,0.0002958,69.9979,262.6461,269.9199,90.1621,0.0001493,1.688e-05,0.0,0 STARLINK-5506,1 55651U 23021Z   24054.81120671  .00001688  00000-0  14930-3 0  9994,2 55651  69.9979 262.6461 0002958 269.9199  90.1621 14.98319827 56911,6950.224,96.108,574.145,570.033,0.0
55651.0,STARLINK-5506,PAYLOAD,2024-02-23 22:40:24,14.98327617,0.0002921,69.9979,262.3094,270.7563,89.3261,-2.5905e-05,-4.02e-06,0.0,0 STARLINK-5506,1 55651U 23021Z   24054.94472586 -.00000402  00000-0 -25905-4 0  9993,2 55651  69.9979 262.3094 0002921 270.7563  89.3261 14.98327617 57237,6950.2,96.107,574.095,570.035,0.0
55651.0,STARLINK-5506,PAYLOAD,2024-02-24 06:41:04,14.98330372,0.0002941,69.9979,261.4676,271.2686,88.8136,-3.498e-06,-1.35e-06,0.0,0 STARLINK-5506,1 55651U 23021Z   24055.27852353 -.00000135  00000-0 -34980-5 0  9991,2 55651  69.9979 261.4676 0002941 271.2686  88.8136 14.98330372 56985,6950.192,96.107,574.101,570.013,0.0
55651.0,STARLINK-5506,PAYLOAD,2024-02-24 14:41:44,14.98333027,0.0002957,69.9979,260.6258,270.989,89.093,9.8202e-06,2.4e-07,0.0,0 STARLINK-5506,1 55651U 23021Z   24055.61232100  .00000024  00000-0  98202-5 0  9993,2 55651  69.9979 260.6258 0002957 270.9890  89.0930 14.98333027 57337,6950.184,96.107,574.104,569.993,0.0
55651.0,STARLINK-5506,PAYLOAD,2024-02-24 19:30:08,14.98332799,0.0002963,69.9979,260.1208,270.8959,89.186,7.6153e-06,-2e-08,0.0,0 STARLINK-5506,1 55651U 23021Z   24055.81260078 -.00000002  00000-0  76153-5 0  9998,2 55651  69.9979 260.1208 0002963 270.8959  89.1860 14.98332799 57360,6950.184,96.107,574.109,569.99,0.0
55651.0,STARLINK-5506,PAYLOAD,2024-02-25 06:43:05,14.98331201,0.000293,69.9979,258.9424,271.4494,88.6329,6.4827e-06,-1.6e-07,0.0,0 STARLINK-5506,1 55651U 23021Z   24056.27992092 -.00000016  00000-0  64827-5 0  9997,2 55651  69.9979 258.9424 0002930 271.4494  88.6329 14.98331201 57136,6950.189,96.107,574.091,570.018,0.0
55651.0,STARLINK-5506,PAYLOAD,2024-02-25 14:43:45,14.98330505,0.0002981,69.998,258.1004,271.1485,88.9333,5.134e-05,5.2e-06,0.0,0 STARLINK-5506,1 55651U 23021Z   24056.61371954  .00000520  00000-0  51340-4 0  9997,2 55651  69.9980 258.1004 0002981 271.1485  88.9333 14.98330505 57489,6950.191,96.107,574.128,569.984,0.0
55651.0,STARLINK-5506,PAYLOAD,2024-02-25 22:44:25,14.9833183,0.0003014,69.9981,257.2588,270.866,89.2153,4.0193e-05,3.87e-06,0.0,0 STARLINK-5506,1 55651U 23021Z   24056.94751850  .00000387  00000-0  40193-4 0  9995,2 55651  69.9981 257.2588 0003014 270.8660  89.2153 14.98331830 57538,6950.187,96.107,574.147,569.957,0.0
55651.0,STARLINK-5506,PAYLOAD,2024-02-26 14:45:46,14.98325799,0.0002947,69.9985,255.5756,270.4556,89.6265,-7.1945e-05,-9.51e-06,0.0,0 STARLINK-5506,1 55651U 23021Z   24057.61512575 -.00000951  00000-0 -71945-4 0  9997,2 55651  69.9985 255.5756 0002947 270.4556  89.6265 14.98325799 57630,6950.206,96.107,574.119,570.023,0.0
55651.0,STARLINK-5506,PAYLOAD,2024-02-26 19:34:11,14.98325783,0.0002955,69.9984,255.0704,270.2014,89.8807,-7.3608e-05,-9.71e-06,0.0,0 STARLINK-5506,1 55651U 23021Z   24057.81540615 -.00000971  00000-0 -73608-4 0  9995,2 55651  69.9984 255.0704 0002955 270.2014  89.8807 14.98325783 57360,6950.206,96.107,574.125,570.017,0.0
55651.0,STARLINK-5506,PAYLOAD,2024-02-26 22:46:27,14.98326062,0.000295,69.9984,254.7338,270.2314,89.8507,-6.7762e-05,-9.01e-06,0.0,0 STARLINK-5506,1 55651U 23021Z   24057.94892606 -.00000901  00000-0 -67762-4 0  9996,2 55651  69.9984 254.7338 0002950 270.2314  89.8507 14.98326062 57680,6950.205,96.107,574.12,570.02,0.0
55651.0,STARLINK-5506,PAYLOAD,2024-02-27 14:47:47,14.98328503,0.0002973,69.9983,253.0507,270.5924,89.4894,-3.081e-05,-4.61e-06,0.0,0 STARLINK-5506,1 55651U 23021Z   24058.61652440 -.00000461  00000-0 -30810-4 0  9996,2 55651  69.9983 253.0507 0002973 270.5924  89.4894 14.98328503 57782,6950.198,96.107,574.129,569.996,0.0
